{"fetched_at":"2026-07-06T08:46:35.713Z","source":"https://celestrak.org/NORAD/elements/gp.php?GROUP=kuiper&FORMAT=JSON","constellation":"kuiper","records":[{"OBJECT_NAME":"KUIPER-00121","OBJECT_ID":"2025-228D","EPOCH":"2026-07-05T05:44:21.524064","CLASSIFICATION_TYPE":"U","MEAN_MOTION":14.79928478,"ECCENTRICITY":0.0000449,"INCLINATION":51.8979,"RA_OF_ASC_NODE":193.2843,"ARG_OF_PERICENTER":66.6052,"MEAN_ANOMALY":293.4958,"EPHEMERIS_TYPE":0,"NORAD_CAT_ID":65950,"ELEMENT_SET_NO":999,"REV_AT_EPOCH":4074,"BSTAR":0.00043708,"MEAN_MOTION_DOT":0.00003112,"MEAN_MOTION_DDOT":0},{"OBJECT_NAME":"KUIPER-00122","OBJECT_ID":"2025-228E","EPOCH":"2026-07-05T10:20:32.263008","CLASSIFICATION_TYPE":"U","MEAN_MOTION":14.79929996,"ECCENTRICITY":0.0000497,"INCLINATION":51.8968,"RA_OF_ASC_NODE":202.4107,"ARG_OF_PERICENTER":73.5755,"MEAN_ANOMALY":286.5262,"EPHEMERIS_TYPE":0,"NORAD_CAT_ID":65951,"ELEMENT_SET_NO":999,"REV_AT_EPOCH":4063,"BSTAR":0.000025878,"MEAN_MOTION_DOT":-2.4e-7,"MEAN_MOTION_DDOT":0},{"OBJECT_NAME":"KUIPER-00123","OBJECT_ID":"2025-228F","EPOCH":"2026-07-05T06:17:26.733408","CLASSIFICATION_TYPE":"U","MEAN_MOTION":14.79931331,"ECCENTRICITY":0.0000397,"INCLINATION":51.8965,"RA_OF_ASC_NODE":203.1692,"ARG_OF_PERICENTER":63.3128,"MEAN_ANOMALY":296.7875,"EPHEMERIS_TYPE":0,"NORAD_CAT_ID":65952,"ELEMENT_SET_NO":999,"REV_AT_EPOCH":4060,"BSTAR":0.00043534,"MEAN_MOTION_DOT":0.00003099,"MEAN_MOTION_DDOT":0},{"OBJECT_NAME":"KUIPER-00124","OBJECT_ID":"2025-228G","EPOCH":"2026-07-05T09:43:34.164192","CLASSIFICATION_TYPE":"U","MEAN_MOTION":14.7992878,"ECCENTRICITY":0.0000481,"INCLINATION":51.8968,"RA_OF_ASC_NODE":195.0241,"ARG_OF_PERICENTER":72.0251,"MEAN_ANOMALY":288.0764,"EPHEMERIS_TYPE":0,"NORAD_CAT_ID":65953,"ELEMENT_SET_NO":999,"REV_AT_EPOCH":4073,"BSTAR":0.00044537,"MEAN_MOTION_DOT":0.00003175,"MEAN_MOTION_DDOT":0},{"OBJECT_NAME":"KUIPER-00125","OBJECT_ID":"2025-228H","EPOCH":"2026-07-05T10:06:52.651008","CLASSIFICATION_TYPE":"U","MEAN_MOTION":14.79932441,"ECCENTRICITY":0.0000528,"INCLINATION":51.8983,"RA_OF_ASC_NODE":179.9956,"ARG_OF_PERICENTER":69.8747,"MEAN_ANOMALY":290.2272,"EPHEMERIS_TYPE":0,"NORAD_CAT_ID":65954,"ELEMENT_SET_NO":999,"REV_AT_EPOCH":4094,"BSTAR":0.00044159,"MEAN_MOTION_DOT":0.00003147,"MEAN_MOTION_DDOT":0},{"OBJECT_NAME":"KUIPER-00126","OBJECT_ID":"2025-228J","EPOCH":"2026-07-05T10:24:26.471808","CLASSIFICATION_TYPE":"U","MEAN_MOTION":14.7993161,"ECCENTRICITY":0.000053,"INCLINATION":51.8969,"RA_OF_ASC_NODE":199.9289,"ARG_OF_PERICENTER":76.4259,"MEAN_ANOMALY":283.6762,"EPHEMERIS_TYPE":0,"NORAD_CAT_ID":65955,"ELEMENT_SET_NO":999,"REV_AT_EPOCH":4066,"BSTAR":0.00042473,"MEAN_MOTION_DOT":0.00003018,"MEAN_MOTION_DDOT":0},{"OBJECT_NAME":"KUIPER-00127","OBJECT_ID":"2025-228K","EPOCH":"2026-07-05T10:11:43.281600","CLASSIFICATION_TYPE":"U","MEAN_MOTION":14.79935728,"ECCENTRICITY":0.0000565,"INCLINATION":51.8988,"RA_OF_ASC_NODE":192.4367,"ARG_OF_PERICENTER":67.5518,"MEAN_ANOMALY":292.5504,"EPHEMERIS_TYPE":0,"NORAD_CAT_ID":65956,"ELEMENT_SET_NO":999,"REV_AT_EPOCH":4077,"BSTAR":0.00040556,"MEAN_MOTION_DOT":0.00002872,"MEAN_MOTION_DDOT":0},{"OBJECT_NAME":"KUIPER-00128","OBJECT_ID":"2025-228L","EPOCH":"2026-07-05T09:47:27.509856","CLASSIFICATION_TYPE":"U","MEAN_MOTION":14.79926876,"ECCENTRICITY":0.0000497,"INCLINATION":51.8975,"RA_OF_ASC_NODE":192.5746,"ARG_OF_PERICENTER":59.8106,"MEAN_ANOMALY":300.2906,"EPHEMERIS_TYPE":0,"NORAD_CAT_ID":65957,"ELEMENT_SET_NO":999,"REV_AT_EPOCH":4076,"BSTAR":0.00015357,"MEAN_MOTION_DOT":0.0000095,"MEAN_MOTION_DDOT":0},{"OBJECT_NAME":"KUIPER-00129","OBJECT_ID":"2025-228M","EPOCH":"2026-07-05T09:06:36.349632","CLASSIFICATION_TYPE":"U","MEAN_MOTION":14.79925169,"ECCENTRICITY":0.0000535,"INCLINATION":51.8979,"RA_OF_ASC_NODE":187.6832,"ARG_OF_PERICENTER":79.7193,"MEAN_ANOMALY":280.383,"EPHEMERIS_TYPE":0,"NORAD_CAT_ID":65958,"ELEMENT_SET_NO":999,"REV_AT_EPOCH":4083,"BSTAR":0.00018075,"MEAN_MOTION_DOT":0.00001157,"MEAN_MOTION_DDOT":0},{"OBJECT_NAME":"KUIPER-00130","OBJECT_ID":"2025-228N","EPOCH":"2026-07-05T09:51:21.238272","CLASSIFICATION_TYPE":"U","MEAN_MOTION":14.79928343,"ECCENTRICITY":0.0000468,"INCLINATION":51.9008,"RA_OF_ASC_NODE":190.0777,"ARG_OF_PERICENTER":68.431,"MEAN_ANOMALY":291.6702,"EPHEMERIS_TYPE":0,"NORAD_CAT_ID":65959,"ELEMENT_SET_NO":999,"REV_AT_EPOCH":3109,"BSTAR":0.00040876,"MEAN_MOTION_DOT":0.00002896,"MEAN_MOTION_DDOT":0},{"OBJECT_NAME":"KUIPER-00134","OBJECT_ID":"2025-228P","EPOCH":"2026-07-05T05:18:02.475936","CLASSIFICATION_TYPE":"U","MEAN_MOTION":15.41710637,"ECCENTRICITY":0.0006772,"INCLINATION":51.8707,"RA_OF_ASC_NODE":109.592,"ARG_OF_PERICENTER":17.6928,"MEAN_ANOMALY":342.4295,"EPHEMERIS_TYPE":0,"NORAD_CAT_ID":65960,"ELEMENT_SET_NO":999,"REV_AT_EPOCH":4190,"BSTAR":0.0010822,"MEAN_MOTION_DOT":0.00046337,"MEAN_MOTION_DDOT":0},{"OBJECT_NAME":"KUIPER-00135","OBJECT_ID":"2025-228Q","EPOCH":"2026-07-05T10:39:58.641408","CLASSIFICATION_TYPE":"U","MEAN_MOTION":14.79938557,"ECCENTRICITY":0.0000478,"INCLINATION":51.9002,"RA_OF_ASC_NODE":189.9832,"ARG_OF_PERICENTER":70.6292,"MEAN_ANOMALY":289.4722,"EPHEMERIS_TYPE":0,"NORAD_CAT_ID":65961,"ELEMENT_SET_NO":999,"REV_AT_EPOCH":4080,"BSTAR":0.00042619,"MEAN_MOTION_DOT":0.0000303,"MEAN_MOTION_DDOT":0},{"OBJECT_NAME":"KUIPER-00136","OBJECT_ID":"2025-228R","EPOCH":"2026-07-05T09:55:14.049984","CLASSIFICATION_TYPE":"U","MEAN_MOTION":14.79930161,"ECCENTRICITY":0.0000477,"INCLINATION":51.8991,"RA_OF_ASC_NODE":187.5762,"ARG_OF_PERICENTER":67.3895,"MEAN_ANOMALY":292.7118,"EPHEMERIS_TYPE":0,"NORAD_CAT_ID":65962,"ELEMENT_SET_NO":999,"REV_AT_EPOCH":4083,"BSTAR":0.00044155,"MEAN_MOTION_DOT":0.00003146,"MEAN_MOTION_DDOT":0},{"OBJECT_NAME":"KUIPER-00137","OBJECT_ID":"2025-228S","EPOCH":"2026-07-05T05:07:23.782080","CLASSIFICATION_TYPE":"U","MEAN_MOTION":14.79929787,"ECCENTRICITY":0.00005,"INCLINATION":51.9012,"RA_OF_ASC_NODE":185.9525,"ARG_OF_PERICENTER":67.6704,"MEAN_ANOMALY":292.4311,"EPHEMERIS_TYPE":0,"NORAD_CAT_ID":65963,"ELEMENT_SET_NO":999,"REV_AT_EPOCH":4084,"BSTAR":0.00044133,"MEAN_MOTION_DOT":0.00003145,"MEAN_MOTION_DDOT":0},{"OBJECT_NAME":"KUIPER-00138","OBJECT_ID":"2025-228T","EPOCH":"2026-07-05T09:14:21.509952","CLASSIFICATION_TYPE":"U","MEAN_MOTION":14.79937937,"ECCENTRICITY":0.0000471,"INCLINATION":51.8972,"RA_OF_ASC_NODE":182.6267,"ARG_OF_PERICENTER":78.3189,"MEAN_ANOMALY":281.7826,"EPHEMERIS_TYPE":0,"NORAD_CAT_ID":65964,"ELEMENT_SET_NO":999,"REV_AT_EPOCH":4090,"BSTAR":0.00035688,"MEAN_MOTION_DOT":0.00002501,"MEAN_MOTION_DDOT":0}]}
