KUIPER-00121            
1 65950U 25228D   26186.23913802  .00003112  00000+0  43708-3 0  9996
2 65950  51.8979 193.2843 0000448  66.6052 293.4958 14.79928478 40741
KUIPER-00122            
1 65951U 25228E   26186.43092898 -.00000024  00000+0  25878-4 0  9991
2 65951  51.8968 202.4107 0000496  73.5755 286.5262 14.79929996 40631
KUIPER-00123            
1 65952U 25228F   26186.26211497  .00003099  00000+0  43534-3 0  9993
2 65952  51.8965 203.1692 0000397  63.3128 296.7875 14.79931331 40603
KUIPER-00124            
1 65953U 25228G   26186.40525653  .00003175  00000+0  44537-3 0  9991
2 65953  51.8968 195.0241 0000480  72.0251 288.0764 14.79928780 40732
KUIPER-00125            
1 65954U 25228H   26186.42144272  .00003147  00000+0  44159-3 0  9997
2 65954  51.8983 179.9956 0000527  69.8747 290.2272 14.79932441 40941
KUIPER-00126            
1 65955U 25228J   26186.43363973  .00003018  00000+0  42473-3 0  9994
2 65955  51.8969 199.9289 0000530  76.4259 283.6762 14.79931610 40669
KUIPER-00127            
1 65956U 25228K   26186.42480651  .00002872  00000+0  40556-3 0  9994
2 65956  51.8988 192.4367 0000564  67.5518 292.5504 14.79935728 40771
KUIPER-00128            
1 65957U 25228L   26186.40795730  .00000950  00000+0  15357-3 0  9996
2 65957  51.8975 192.5746 0000497  59.8106 300.2906 14.79926876 40768
KUIPER-00129            
1 65958U 25228M   26186.37958739  .00001157  00000+0  18075-3 0  9993
2 65958  51.8979 187.6832 0000534  79.7193 280.3830 14.79925169 40839
KUIPER-00130            
1 65959U 25228N   26186.41066248  .00002896  00000+0  40876-3 0  9999
2 65959  51.9008 190.0777 0000467  68.4310 291.6702 14.79928343 31099
KUIPER-00134            
1 65960U 25228P   26186.22086200  .00046337  00000+0  10822-2 0  9995
2 65960  51.8707 109.5920 0006771  17.6928 342.4295 15.41710637 41904
KUIPER-00135            
1 65961U 25228Q   26186.44442872  .00003030  00000+0  42619-3 0  9994
2 65961  51.9002 189.9832 0000478  70.6292 289.4722 14.79938557 40805
KUIPER-00136            
1 65962U 25228R   26186.41335707  .00003146  00000+0  44155-3 0  9995
2 65962  51.8991 187.5762 0000477  67.3895 292.7118 14.79930161 40831
KUIPER-00137            
1 65963U 25228S   26186.21346971  .00003145  00000+0  44133-3 0  9994
2 65963  51.9012 185.9525 0000499  67.6704 292.4311 14.79929787 40847
KUIPER-00138            
1 65964U 25228T   26186.38497119  .00002501  00000+0  35688-3 0  9994
2 65964  51.8972 182.6267 0000470  78.3189 281.7826 14.79937937 40909
